[
    {
        "Altitude(m)": 607897.6053362304,
        "Argument of Periapsis(deg)": 0.0,
        "Eccentricity": 0.0,
        "Inclination(deg)": 60.0,
        "Latitude(deg)": -14.292882090328357,
        "Longitude(deg)": 96.61875754176546,
        "Mean Anomaly(deg)": -16.363600000000012,
        "RAAN(deg)": 205.0,
        "Satellite Name": "Test1 923",
        "Satellite Number": 923,
        "Semi-Major Axis(m)": 6980739.136638005,
        "Time(s)": 0
    },
    {
        "Altitude(m)": 607750.8069337659,
        "Argument of Periapsis(deg)": 0.00010418945913296404,
        "Eccentricity": 0.0,
        "Inclination(deg)": 60.0,
        "Latitude(deg)": -13.758723440035116,
        "Longitude(deg)": 96.905826310317,
        "Mean Anomaly(deg)": -15.743493854538157,
        "RAAN(deg)": 204.99957995086024,
        "Satellite Name": "Test1 923",
        "Satellite Number": 923,
        "Semi-Major Axis(m)": 6980739.136638005,
        "Time(s)": 10
    }
]